COSMOS 2426 (717)       
1 29671U 06062B   20026.37896572  .00000024  00000-0  10000-3 0  9996
2 29671  65.0224 272.7478 0019671 171.2926 188.0051  2.12962316101844
COSMOS 2433 (720)       
1 32275U 07052A   20027.16782571 -.00000048  00000-0  10000-3 0  9998
2 32275  65.9356  33.6618 0005591 260.5284  50.9266  2.13104379 95371
COSMOS 2432 (719)       
1 32276U 07052B   20026.48701514 -.00000048  00000-0  10000-3 0  9991
2 32276  65.9483  33.7720 0012067 318.0833 141.5763  2.13103629 95368
COSMOS 2434 (721)       
1 32393U 07065A   20026.82912498  .00000022  00000-0  00000+0 0  9994
2 32393  64.6275 271.3151 0003608  78.5000 220.5340  2.13103010 94076
COSMOS 2436 (723)       
1 32395U 07065C   20026.42580591  .00000025  00000-0  10000-3 0  9995
2 32395  64.6379 271.3763 0015371 343.1135 136.5078  2.13280902 94005
COSMOS 2456 (730)       
1 36111U 09070A   20026.68107535  .00000007  00000-0  00000+0 0  9999
2 36111  64.2159 150.9799 0002854 340.3734  18.4605  2.13102731 78733
COSMOS 2457 (733)       
1 36112U 09070B   20026.88357166  .00000009  00000-0  00000+0 0  9991
2 36112  64.1988 150.8674 0006411 152.8178 125.3250  2.13101389 78748
COSMOS 2459 (731)       
1 36400U 10007A   20026.67343993 -.00000049  00000-0  10000-3 0  9993
2 36400  65.8393  32.6676 0026116 343.8014 163.2989  2.13105086 77095
COSMOS 2461 (735)       
1 36401U 10007B   20026.72590400 -.00000049  00000-0  10000-3 0  9997
2 36401  65.8325  32.6371 0004493  50.0207  47.0453  2.13101934 77091
COSMOS 2460 (732)       
1 36402U 10007C   20026.31160553 -.00000049  00000-0  10000-3 0  9995
2 36402  65.8230  32.6114 0002655 266.7460 271.9016  2.13101407 77084
COSMOS 2464 (736)       
1 37139U 10041C   20026.71655122  .00000023  00000-0  00000+0 0  9992
2 37139  64.2280 270.8313 0027421  11.4773  65.8528  2.13100706 73161
COSMOS 2474 (742)       
1 37829U 11055A   20026.75006911  .00000008  00000-0  00000+0 0  9997
2 37829  64.5365 151.9423 0008284 241.1244  26.0370  2.13101787 64733
COSMOS 2476 (744)       
1 37867U 11064A   20026.87744635  .00000010  00000-0  00000+0 0  9997
2 37867  64.5177 151.9850 0018051 234.7554 176.3194  2.13101825 64090
COSMOS 2477 (745)       
1 37868U 11064B   20026.51959170  .00000006  00000-0  00000+0 0  9996
2 37868  64.5248 152.0508 0015684 235.1401  79.9833  2.13101694 64033
COSMOS 2475 (743)       
1 37869U 11064C   20026.01412196 -.00000000  00000-0  00000+0 0  9999
2 37869  64.5325 152.0688 0019174 260.4239 344.2087  2.13101844 64033
COSMOS 2485 (747)       
1 39155U 13019A   20026.38615324  .00000004  00000-0  00000+0 0  9992
2 39155  64.6849 152.2393 0018657 229.5069 209.3071  2.13101783 52552
COSMOS 2492 (754)       
1 39620U 14012A   20027.15991367 -.00000050  00000-0  10000-3 0  9990
2 39620  65.7125  32.3851 0015421 317.3379  30.1712  2.13103261 45514
COSMOS 2500 (755)       
1 40001U 14032A   20027.11272549 -.00000050  00000-0  00000+0 0  9992
2 40001  65.6538  32.3136 0008004 224.2171 307.9568  2.13102548 43730
COSMOS 2501 (702K)      
1 40315U 14075A   20026.54775822  .00000022  00000-0  00000-0 0  9994
2 40315  63.9463 271.8338 0015288 208.6626  46.2114  2.13098493 40126
COSMOS 2514 (751)       
1 41330U 16008A   20027.08478475 -.00000050  00000-0  00000+0 0  9995
2 41330  65.4560  32.2219 0011679 226.9431 105.9487  2.13102968 30895
COSMOS 2516 (753)       
1 41554U 16032A   20026.51551994  .00000023  00000-0  00000-0 0  9995
2 41554  64.1709 271.8656 0011267 220.7046 286.1349  2.13101753 28490
COSMOS 2522 (752)       
1 42939U 17055A   20026.88514691  .00000020  00000-0  00000+0 0  9998
2 42939  64.4030 271.9906 0006533 255.9483  41.0107  2.13102111 18254
COSMOS 2527 (756)       
1 43508U 18053A   20026.49501765  .00000006  00000-0  00000-0 0  9990
2 43508  64.8496 152.0546 0006396 219.1889 170.0698  2.13102543 12548
COSMOS 2529 (757)       
1 43687U 18086A   20026.24798432  .00000025  00000-0  00000+0 0  9996
2 43687  64.6163 272.0932 0009554 279.3135 204.4705  2.13102092  9555
COSMOS 2534 (758)       
1 44299U 19030A   20026.78011427  .00000022  00000-0  00000-0 0  9995
2 44299  64.6853 271.8782 0013178 296.8392  10.2828  2.13101929  5202